[{"OBJECT_NAME":"STARLINK-6301","OBJECT_ID":"2023-061U","EPOCH":"2026-03-09T22:00:01.999584","MEAN_MOTION":15.05910777,"ECCENTRICITY":0.00022995,"INCLINATION":43.0006,"RA_OF_ASC_NODE":183.7483,"ARG_OF_PERICENTER":264.0078,"MEAN_ANOMALY":68.1316,"EPHEMERIS_TYPE":0,"CLASSIFICATION_TYPE":"U","NORAD_CAT_ID":56392,"ELEMENT_SET_NO":999,"REV_AT_EPOCH":577,"BSTAR":0.0016398394,"MEAN_MOTION_DOT":0.00024118,"MEAN_MOTION_DDOT":0},{"OBJECT_NAME":"PSLV DEB","OBJECT_ID":"2001-049CG","EPOCH":"2026-03-09T17:57:10.653408","MEAN_MOTION":15.10779615,"ECCENTRICITY":0.00259315,"INCLINATION":97.9011,"RA_OF_ASC_NODE":146.9612,"ARG_OF_PERICENTER":307.1678,"MEAN_ANOMALY":170.9563,"EPHEMERIS_TYPE":0,"CLASSIFICATION_TYPE":"U","NORAD_CAT_ID":27136,"ELEMENT_SET_NO":999,"REV_AT_EPOCH":32989,"BSTAR":0.00047952924,"MEAN_MOTION_DOT":7.956e-5,"MEAN_MOTION_DDOT":0}]
